ONEWEB-0176             
1 48210U 21031A   25203.96957140  .00000537  00000+0  14151-2 0  9993
2 48210  87.9050 355.2051 0001666  96.8725 263.2594 13.14508910206352
ONEWEB-0184             
1 48211U 21031B   25204.17096046  .00000230  00000+0  58681-3 0  9994
2 48211  87.9054 355.1362 0002396  76.0348 284.1048 13.14501921205061
ONEWEB-0179             
1 48212U 21031C   25203.45655438 -.00000111  00000+0 -33402-3 0  9995
2 48212  87.9055 355.2960 0001715  94.9855 265.1470 13.14504543205010
ONEWEB-0180             
1 48213U 21031D   25203.48907120  .00000326  00000+0  84610-3 0  9990
2 48213  87.9056 355.2767 0001795  87.4590 272.6745 13.14503520204907
ONEWEB-0218             
1 48214U 21031E   25203.89187061 -.00000020  00000+0 -88170-4 0  9999
2 48214  87.9056 355.1976 0002231  70.5535 289.5835 13.14503631205111
ONEWEB-0209             
1 48215U 21031F   25203.42405868  .00000164  00000+0  40881-3 0  9990
2 48215  87.9058 355.3344 0001643  93.1874 266.9443 13.14503665205052
ONEWEB-0198             
1 48216U 21031G   25204.16934438 -.00007093  00000+0 -19171-1 0  9999
2 48216  87.9057 355.1876 0001866  84.5924 275.5419 13.14536177205241
ONEWEB-0189             
1 48217U 21031H   25203.95370618  .00000203  00000+0  51257-3 0  9997
2 48217  87.9057 355.2042 0001741  81.6725 278.4602 13.14501010204970
